{
    "links": {
        "self": "http://www.neowsapp.com/rest/v1/neo/3449123?api_key=iIulBulltgU6a56xZRHN4H3l9WmuAYTsLGpBGhQ2"
    },
    "id": "3449123",
    "neo_reference_id": "3449123",
    "name": "(2009 EY)",
    "designation": "2009 EY",
    "nasa_jpl_url": "http://ssd.jpl.nasa.gov/sbdb.cgi?sstr=3449123",
    "absolute_magnitude_h": 26.5,
    "estimated_diameter": {
        "kilometers": {
            "estimated_diameter_min": 0.0133215567,
            "estimated_diameter_max": 0.0297879063
        },
        "meters": {
            "estimated_diameter_min": 13.3215566698,
            "estimated_diameter_max": 29.7879062798
        },
        "miles": {
            "estimated_diameter_min": 0.008277629,
            "estimated_diameter_max": 0.0185093411
        },
        "feet": {
            "estimated_diameter_min": 43.7058959846,
            "estimated_diameter_max": 97.7293544391
        }
    },
    "is_potentially_hazardous_asteroid": false,
    "close_approach_data": [
        {
            "close_approach_date": "2009-02-24",
            "close_approach_date_full": "2009-Feb-24 06:18",
            "epoch_date_close_approach": 1235456280000,
            "relative_velocity": {
                "kilometers_per_second": "11.2464510062",
                "kilometers_per_hour": "40487.2236221508",
                "miles_per_hour": "25157.1862556636"
            },
            "miss_distance": {
                "astronomical": "0.0213667285",
                "lunar": "8.3116573865",
                "kilometers": "3196417.072468295",
                "miles": "1986161.469300671"
            },
            "orbiting_body": "Earth"
        }
    ],
    "orbital_data": {
        "orbit_id": "6",
        "orbit_determination_date": "2017-04-06 09:01:06",
        "first_observation_date": "2009-03-02",
        "last_observation_date": "2009-03-03",
        "data_arc_in_days": 1,
        "observations_used": 19,
        "orbit_uncertainty": "8",
        "minimum_orbit_intersection": ".0113031",
        "jupiter_tisserand_invariant": "3.845",
        "epoch_osculation": "2454893.5",
        "eccentricity": ".5220435479509224",
        "semi_major_axis": "1.83730117252198",
        "inclination": "1.315582518608827",
        "ascending_node_longitude": "2.93411148879687",
        "orbital_period": "909.6387550924838",
        "perihelion_distance": ".8781499497642158",
        "perihelion_argument": "102.3901445868776",
        "aphelion_distance": "2.796452395279744",
        "perihelion_time": "2454850.299488614472",
        "mean_anomaly": "17.09709927344606",
        "mean_motion": ".3957615020079025",
        "equinox": "J2000",
        "orbit_class": {
            "orbit_class_type": "APO",
            "orbit_class_description": "Near-Earth asteroid orbits which cross the Earth’s orbit similar to that of 1862 Apollo",
            "orbit_class_range": "a (semi-major axis) > 1.0 AU; q (perihelion) < 1.017 AU"
        }
    },
    "is_sentry_object": false
}